start=new Date('2022-08-18T00:00:00.000Z').valueOf();
sats=[{"ECCENTRICITY":"0.00019720","MEAN_MOTION_DOT":"0.00000190","OBJECT_ID":"2022-005E","GP_ID":"210407064","INCLINATION":"53.2175","BSTAR":"0.00003003400000","OBJECT_NAME":"STARLINK-3362","NORAD_CAT_ID":"51108","REF_FRAME":"TEME","MEAN_ANOMALY":"309.6959","ARG_OF_PERICENTER":"50.4207","PERIAPSIS":"538.386","PERIOD":"95.438","TLE_LINE1":"1 51108U 22005E   22229.35123317  .00000190  00000-0  30034-4 0  9990","REV_AT_EPOCH":"3257","FILE":"3538809","RCS_SIZE":"LARGE","MEAN_ELEMENT_THEORY":"SGP4","RA_OF_ASC_NODE":"6.5831","DECAY_DATE":null,"MEAN_MOTION_DDOT":"0.0000000000000","LAUNCH_DATE":"2022-01-19","SEMIMAJOR_AXIS":"6917.885","MEAN_MOTION":"15.08838538","SITE":"AFETR","COUNTRY_CODE":"US","OBJECT_TYPE":"PAYLOAD","APOAPSIS":"541.114","TIME_SYSTEM":"UTC","CLASSIFICATION_TYPE":"U","ELEMENT_SET_NO":"999","EPOCH":"2022-08-17T08:25:46.545888","TLE_LINE2":"2 51108  53.2175   6.5831 0001972  50.4207 309.6959 15.08838538 32577","EPHEMERIS_TYPE":"0","CENTER_NAME":"EARTH"},{"RA_OF_ASC_NODE":"5.8588","MEAN_ELEMENT_THEORY":"SGP4","RCS_SIZE":"LARGE","DECAY_DATE":null,"TLE_LINE1":"1 51109U 22005F   22229.50673468 -.00002998  00000-0 -17025-3 0  9999","PERIAPSIS":"538.715","ARG_OF_PERICENTER":"50.8358","PERIOD":"95.436","MEAN_ANOMALY":"309.2757","FILE":"3538809","REV_AT_EPOCH":"3236","OBJECT_NAME":"STARLINK-3358","BSTAR":"-0.00017025000000","REF_FRAME":"TEME","NORAD_CAT_ID":"51109","ECCENTRICITY":"0.00013760","GP_ID":"210407314","INCLINATION":"53.2178","MEAN_MOTION_DOT":"-0.00002998","OBJECT_ID":"2022-005F","EPOCH":"2022-08-17T12:09:41.876352","TLE_LINE2":"2 51109  53.2178   5.8588 0001376  50.8358 309.2757 15.08865599 32367","CLASSIFICATION_TYPE":"U","ELEMENT_SET_NO":"999","CENTER_NAME":"EARTH","EPHEMERIS_TYPE":"0","COUNTRY_CODE":"US","SITE":"AFETR","TIME_SYSTEM":"UTC","APOAPSIS":"540.619","OBJECT_TYPE":"PAYLOAD","SEMIMAJOR_AXIS":"6917.802","MEAN_MOTION":"15.08865599","MEAN_MOTION_DDOT":"0.0000000000000","LAUNCH_DATE":"2022-01-19"},{"GP_ID":"210408066","INCLINATION":"53.2186","OBJECT_ID":"2022-005G","MEAN_MOTION_DOT":"0.00000171","ECCENTRICITY":"0.00014910","REF_FRAME":"TEME","NORAD_CAT_ID":"51110","OBJECT_NAME":"STARLINK-3344","BSTAR":"0.00002881300000","FILE":"3538809","REV_AT_EPOCH":"3259","TLE_LINE1":"1 51110U 22005G   22229.47635188  .00000171  00000-0  28813-4 0  9991","PERIAPSIS":"538.726","PERIOD":"95.438","ARG_OF_PERICENTER":"50.6363","MEAN_ANOMALY":"309.4761","DECAY_DATE":null,"RA_OF_ASC_NODE":"6.0178","MEAN_ELEMENT_THEORY":"SGP4","RCS_SIZE":"LARGE","LAUNCH_DATE":"2022-01-19","MEAN_MOTION_DDOT":"0.0000000000000","MEAN_MOTION":"15.08836096","SEMIMAJOR_AXIS":"6917.892","APOAPSIS":"540.789","TIME_SYSTEM":"UTC","OBJECT_TYPE":"PAYLOAD","COUNTRY_CODE":"US","SITE":"AFETR","CENTER_NAME":"EARTH","EPHEMERIS_TYPE":"0","TLE_LINE2":"2 51110  53.2186   6.0178 0001491  50.6363 309.4761 15.08836096 32590","EPOCH":"2022-08-17T11:25:56.802432","CLASSIFICATION_TYPE":"U","ELEMENT_SET_NO":"999"},{"BSTAR":"0.00008790700000","OBJECT_NAME":"STARLINK-3173","NORAD_CAT_ID":"51111","REF_FRAME":"TEME","ECCENTRICITY":"0.00013690","MEAN_MOTION_DOT":"0.00001112","OBJECT_ID":"2022-005H","GP_ID":"210407817","INCLINATION":"53.2185","RCS_SIZE":"LARGE","MEAN_ELEMENT_THEORY":"SGP4","RA_OF_ASC_NODE":"5.8189","DECAY_DATE":null,"MEAN_ANOMALY":"285.6687","PERIAPSIS":"538.784","PERIOD":"95.437","ARG_OF_PERICENTER":"74.4457","TLE_LINE1":"1 51111U 22005H   22229.51682831  .00001112  00000-0  87907-4 0  9999","REV_AT_EPOCH":"3259","FILE":"3538809","SEMIMAJOR_AXIS":"6917.866","MEAN_MOTION":"15.08844604","MEAN_MOTION_DDOT":"0.0000000000000","LAUNCH_DATE":"2022-01-19","CLASSIFICATION_TYPE":"U","ELEMENT_SET_NO":"999","TLE_LINE2":"2 51111  53.2185   5.8189 0001369  74.4457 285.6687 15.08844604 32597","EPOCH":"2022-08-17T12:24:13.965984","EPHEMERIS_TYPE":"0","CENTER_NAME":"EARTH","SITE":"AFETR","COUNTRY_CODE":"US","OBJECT_TYPE":"PAYLOAD","TIME_SYSTEM":"UTC","APOAPSIS":"540.678"},{"MEAN_ELEMENT_THEORY":"SGP4","RCS_SIZE":"LARGE","RA_OF_ASC_NODE":"6.3237","DECAY_DATE":null,"MEAN_ANOMALY":"299.5321","TLE_LINE1":"1 51112U 22005J   22229.40642695  .00000346  00000-0  39852-4 0  9996","PERIAPSIS":"538.561","ARG_OF_PERICENTER":"60.5841","PERIOD":"95.437","FILE":"3538809","REV_AT_EPOCH":"3258","OBJECT_NAME":"STARLINK-3374","BSTAR":"0.00003985200000","NORAD_CAT_ID":"51112","REF_FRAME":"TEME","ECCENTRICITY":"0.00016980","OBJECT_ID":"2022-005J","MEAN_MOTION_DOT":"0.00000346","INCLINATION":"53.2219","GP_ID":"210406565","CLASSIFICATION_TYPE":"U","ELEMENT_SET_NO":"999","EPOCH":"2022-08-17T09:45:15.288480","TLE_LINE2":"2 51112  53.2219   6.3237 0001698  60.5841 299.5321 15.08843074 32582","EPHEMERIS_TYPE":"0","CENTER_NAME":"EARTH","SITE":"AFETR","COUNTRY_CODE":"US","OBJECT_TYPE":"PAYLOAD","TIME_SYSTEM":"UTC","APOAPSIS":"540.911","SEMIMAJOR_AXIS":"6917.871","MEAN_MOTION":"15.08843074","MEAN_MOTION_DDOT":"0.0000000000000","LAUNCH_DATE":"2022-01-19"},{"DECAY_DATE":null,"RA_OF_ASC_NODE":"6.6566","RCS_SIZE":"LARGE","MEAN_ELEMENT_THEORY":"SGP4","REV_AT_EPOCH":"3256","FILE":"3538809","PERIAPSIS":"538.783","PERIOD":"95.438","ARG_OF_PERICENTER":"64.2594","TLE_LINE1":"1 51113U 22005K   22229.32914907 -.00000501  00000-0 -13372-4 0  9990","MEAN_ANOMALY":"295.8544","REF_FRAME":"TEME","NORAD_CAT_ID":"51113","BSTAR":"-0.00001337200000","OBJECT_NAME":"STARLINK-3372","INCLINATION":"53.2178","GP_ID":"210406815","OBJECT_ID":"2022-005K","MEAN_MOTION_DOT":"-0.00000501","ECCENTRICITY":"0.00014200","CENTER_NAME":"EARTH","EPHEMERIS_TYPE":"0","EPOCH":"2022-08-17T07:53:58.479648","TLE_LINE2":"2 51113  53.2178   6.6566 0001420  64.2594 295.8544 15.08833317 32567","ELEMENT_SET_NO":"999","CLASSIFICATION_TYPE":"U","TIME_SYSTEM":"UTC","APOAPSIS":"540.748","OBJECT_TYPE":"PAYLOAD","COUNTRY_CODE":"US","SITE":"AFETR","MEAN_MOTION":"15.08833317","SEMIMAJOR_AXIS":"6917.901","LAUNCH_DATE":"2022-01-19","MEAN_MOTION_DDOT":"0.0000000000000"},{"EPHEMERIS_TYPE":"0","CENTER_NAME":"EARTH","CLASSIFICATION_TYPE":"U","ELEMENT_SET_NO":"999","EPOCH":"2022-08-17T13:06:37.623456","TLE_LINE2":"2 51114  53.2173   5.7043 0001558  56.3645 303.7496 15.08838662 32602","OBJECT_TYPE":"PAYLOAD","APOAPSIS":"540.827","TIME_SYSTEM":"UTC","SITE":"AFETR","COUNTRY_CODE":"US","MEAN_MOTION":"15.08838662","SEMIMAJOR_AXIS":"6917.884","LAUNCH_DATE":"2022-01-19","MEAN_MOTION_DDOT":"0.0000000000000","DECAY_DATE":null,"MEAN_ELEMENT_THEORY":"SGP4","RCS_SIZE":"LARGE","RA_OF_ASC_NODE":"5.7043","FILE":"3538809","REV_AT_EPOCH":"3260","MEAN_ANOMALY":"303.7496","TLE_LINE1":"1 51114U 22005L   22229.54626879  .00001143  00000-0  89887-4 0  9998","PERIOD":"95.438","PERIAPSIS":"538.672","ARG_OF_PERICENTER":"56.3645","NORAD_CAT_ID":"51114","REF_FRAME":"TEME","OBJECT_NAME":"STARLINK-3375","BSTAR":"0.00008988700000","MEAN_MOTION_DOT":"0.00001143","OBJECT_ID":"2022-005L","GP_ID":"210407567","INCLINATION":"53.2173","ECCENTRICITY":"0.00015580"},{"ECCENTRICITY":"0.00016620","OBJECT_ID":"2022-005M","MEAN_MOTION_DOT":"0.00003828","GP_ID":"210408317","INCLINATION":"53.2169","BSTAR":"0.00025846000000","OBJECT_NAME":"STARLINK-3397","NORAD_CAT_ID":"51115","REF_FRAME":"TEME","MEAN_ANOMALY":"292.7388","PERIAPSIS":"538.577","ARG_OF_PERICENTER":"67.3780","PERIOD":"95.437","TLE_LINE1":"1 51115U 22005M   22229.52050748  .00003828  00000-0  25846-3 0  9999","REV_AT_EPOCH":"3259","FILE":"3538809","RCS_SIZE":"LARGE","MEAN_ELEMENT_THEORY":"SGP4","RA_OF_ASC_NODE":"5.7966","DECAY_DATE":null,"MEAN_MOTION_DDOT":"0.0000000000000","LAUNCH_DATE":"2022-01-19","SEMIMAJOR_AXIS":"6917.862","MEAN_MOTION":"15.08845950","SITE":"AFETR","COUNTRY_CODE":"US","OBJECT_TYPE":"PAYLOAD","APOAPSIS":"540.877","TIME_SYSTEM":"UTC","CLASSIFICATION_TYPE":"U","ELEMENT_SET_NO":"999","EPOCH":"2022-08-17T12:29:31.846272","TLE_LINE2":"2 51115  53.2169   5.7966 0001662  67.3780 292.7388 15.08845950 32593","EPHEMERIS_TYPE":"0","CENTER_NAME":"EARTH"},{"LAUNCH_DATE":"2022-01-19","MEAN_MOTION_DDOT":"0.0000000000000","MEAN_MOTION":"15.08844941","SEMIMAJOR_AXIS":"6917.865","OBJECT_TYPE":"PAYLOAD","APOAPSIS":"540.767","TIME_SYSTEM":"UTC","SITE":"AFETR","COUNTRY_CODE":"US","EPHEMERIS_TYPE":"0","CENTER_NAME":"EARTH","ELEMENT_SET_NO":"999","CLASSIFICATION_TYPE":"U","TLE_LINE2":"2 51116  53.2188   5.7336 0001498  60.1199 299.9942 15.08844941 32592","EPOCH":"2022-08-17T12:50:43.160928","OBJECT_ID":"2022-005N","MEAN_MOTION_DOT":"0.00002075","GP_ID":"210407065","INCLINATION":"53.2188","ECCENTRICITY":"0.00014980","NORAD_CAT_ID":"51116","REF_FRAME":"TEME","OBJECT_NAME":"STARLINK-3243","BSTAR":"0.00014839000000","FILE":"3538809","REV_AT_EPOCH":"3259","MEAN_ANOMALY":"299.9942","TLE_LINE1":"1 51116U 22005N   22229.53522177  .00002075  00000-0  14839-3 0  9994","ARG_OF_PERICENTER":"60.1199","PERIAPSIS":"538.694","PERIOD":"95.437","DECAY_DATE":null,"MEAN_ELEMENT_THEORY":"SGP4","RCS_SIZE":"LARGE","RA_OF_ASC_NODE":"5.7336"},{"SEMIMAJOR_AXIS":"6917.884","MEAN_MOTION":"15.08838842","MEAN_MOTION_DDOT":"0.0000000000000","LAUNCH_DATE":"2022-01-19","ELEMENT_SET_NO":"999","CLASSIFICATION_TYPE":"U","EPOCH":"2022-08-17T12:08:19.957920","TLE_LINE2":"2 51117  53.2189   5.8672 0001621  65.3834 294.7327 15.08838842 32592","EPHEMERIS_TYPE":"0","CENTER_NAME":"EARTH","SITE":"AFETR","COUNTRY_CODE":"US","OBJECT_TYPE":"PAYLOAD","TIME_SYSTEM":"UTC","APOAPSIS":"540.870","OBJECT_NAME":"STARLINK-3391","BSTAR":"0.00007951100000","NORAD_CAT_ID":"51117","REF_FRAME":"TEME","ECCENTRICITY":"0.00016210","OBJECT_ID":"2022-005P","MEAN_MOTION_DOT":"0.00000978","INCLINATION":"53.2189","GP_ID":"210407315","MEAN_ELEMENT_THEORY":"SGP4","RCS_SIZE":"LARGE","RA_OF_ASC_NODE":"5.8672","DECAY_DATE":null,"MEAN_ANOMALY":"294.7327","TLE_LINE1":"1 51117U 22005P   22229.50578655  .00000978  00000-0  79511-4 0  9993","PERIAPSIS":"538.628","ARG_OF_PERICENTER":"65.3834","PERIOD":"95.438","FILE":"3538809","REV_AT_EPOCH":"3259"}];
